NORAD_CAT_ID,OBJECT_NAME,OBJECT_TYPE,EPOCH,MEAN_MOTION,ECCENTRICITY,INCLINATION,RA_OF_ASC_NODE,ARG_OF_PERICENTER,MEAN_ANOMALY,BSTAR,MEAN_MOTION_DOT,MEAN_MOTION_DDOT,TLE_LINE0,TLE_LINE1,TLE_LINE2,SEMIMAJOR_AXIS,PERIOD,APOGEE,PERIGEE,DECAYED
51869.0,STARLINK-3588,PAYLOAD,2022-10-09 12:23:23,15.08844507,0.000154,53.2161,207.9142,56.4285,303.6853,0.00018583,2.671e-05,0.0,0 STARLINK-3588,1 51869U 22022T   22282.51624318  .00002671  00000-0  18583-3 0  9997,2 51869  53.2161 207.9142 0001540  56.4285 303.6853 15.08844507 34832,6917.8669999999975,95.437,540.797,538.6659999999998,0.0
51869.0,STARLINK-3588,PAYLOAD,2022-10-10 02:41:51,15.08841135,0.0001436,53.2163,205.2375,54.7673,305.3454,8.827700000000001e-05,1.117e-05,0.0,0 STARLINK-3588,1 51869U 22022T   22283.11240380  .00001117  00000-0  88277-4 0  9999,2 51869  53.2163 205.2375 0001436  54.7673 305.3454 15.08841135 34929,6917.877,95.437,540.735,538.749,0.0
51869.0,STARLINK-3588,PAYLOAD,2022-10-11 04:08:03,15.08822587,0.0001634,53.2167,200.4789,55.6384,304.4763,-0.00011164,-2.063e-05,0.0,0 STARLINK-3588,1 51869U 22022T   22284.17225858 -.00002063  00000-0 -11164-3 0  9992,2 51869  53.2167 200.4789 0001634  55.6384 304.4763 15.08822587 35089,6917.934,95.439,540.929,538.668,0.0
51869.0,STARLINK-3588,PAYLOAD,2022-10-11 05:43:26,15.08824169,0.0001889999999999,53.2166,200.1815,54.21,305.9067,-7.4904e-05,-1.4800000000000002e-05,0.0,0 STARLINK-3588,1 51869U 22022T   22284.23849970 -.00001480  00000-0 -74904-4 0  9990,2 51869  53.2166 200.1815 0001890  54.2100 305.9067 15.08824169 35092,6917.929,95.439,541.101,538.486,0.0
51869.0,STARLINK-3588,PAYLOAD,2022-10-11 18:26:31,15.08823007,0.0001612,53.2166,197.8027,54.911,305.2033,-0.00011172,-2.065e-05,0.0,0 STARLINK-3588,1 51869U 22022T   22284.76842258 -.00002065  00000-0 -11172-3 0  9997,2 51869  53.2166 197.8027 0001612  54.9110 305.2033 15.08823007 35174,6917.932,95.439,540.913,538.682,0.0
51869.0,STARLINK-3588,PAYLOAD,2022-10-12 03:58:50,15.08831902,0.0001678,53.2171,196.0184,54.7494,305.3654,8.828799999999999e-05,1.117e-05,0.0,0 STARLINK-3588,1 51869U 22022T   22285.16586232  .00001117  00000-0  88288-4 0  9997,2 51869  53.2171 196.0184 0001678  54.7494 305.3654 15.08831902 35230,6917.905,95.438,540.931,538.609,0.0
51869.0,STARLINK-3588,PAYLOAD,2022-10-12 05:34:13,15.08834783,0.0001629,53.2171,195.7214,55.8767,304.2379,0.00012619,1.721e-05,0.0,0 STARLINK-3588,1 51869U 22022T   22285.23210029  .00001721  00000-0  12619-3 0  9998,2 51869  53.2171 195.7214 0001629  55.8767 304.2379 15.08834783 35244,6917.896,95.438,540.888,538.634,0.0
51869.0,STARLINK-3588,PAYLOAD,2022-10-12 19:52:41,15.08828519,0.0001665,53.2169,193.0453,61.7111,298.4049,0.00041138,6.263e-05,0.0,0 STARLINK-3588,1 51869U 22022T   22285.82825748  .00006263  00000-0  41138-3 0  9997,2 51869  53.2169 193.0453 0001665  61.7111 298.4049 15.08828519 35334,6917.915,95.438,540.932,538.629,0.0
51869.0,STARLINK-3588,PAYLOAD,2022-10-13 03:49:37,15.08834432,0.000136,53.2156,191.558,60.6048,299.508,0.00032957,4.96e-05,0.0,0 STARLINK-3588,1 51869U 22022T   22286.15946558  .00004960  00000-0  32957-3 0  9998,2 51869  53.2156 191.5580 0001360  60.6048 299.5080 15.08834432 35386,6917.897,95.438,540.703,538.822,0.0
51869.0,STARLINK-3588,PAYLOAD,2022-10-14 03:40:23,15.08855243,0.0001635,53.2159,187.0983,54.7792,305.3353,0.00030838,4.625e-05,0.0,0 STARLINK-3588,1 51869U 22022T   22287.15305469  .00004625  00000-0  30838-3 0  9993,2 51869  53.2159 187.0983 0001635  54.7792 305.3353 15.08855243 35530,6917.834,95.437,540.83,538.568,0.0
51869.0,STARLINK-3588,PAYLOAD,2022-10-14 10:01:56,15.08855648,0.0001694,53.2157,185.908,51.556,308.5584,1.222e-05,-9.4e-07,0.0,0 STARLINK-3588,1 51869U 22022T   22287.41801020 -.00000094  00000-0  12220-4 0  9999,2 51869  53.2157 185.9080 0001694  51.5560 308.5584 15.08855648 35570,6917.833000000001,95.437,540.869,538.526,0.0
51869.0,STARLINK-3588,PAYLOAD,2022-10-14 19:34:15,15.0884949,0.0001733,53.2153,184.1249,58.5402,301.5759,6.6005e-05,7.63e-06,0.0,0 STARLINK-3588,1 51869U 22022T   22287.81545198  .00000763  00000-0  66005-4 0  9996,2 51869  53.2153 184.1249 0001733  58.5402 301.5759 15.08849490 35632,6917.851,95.437,540.915,538.518,0.0
51869.0,STARLINK-3588,PAYLOAD,2022-10-15 00:20:24,15.08840508,0.0001706,53.2158,183.2319,71.331,288.7867,-7.0903e-05,-1.416e-05,0.0,0 STARLINK-3588,1 51869U 22022T   22288.01417604 -.00001416  00000-0 -70903-4 0  9999,2 51869  53.2158 183.2319 0001706  71.3310 288.7867 15.08840508 35666,6917.879,95.438,540.924,538.564,0.0
51869.0,STARLINK-3588,PAYLOAD,2022-10-15 05:06:34,15.08844677,0.0001744,53.2169,182.3398,78.3747,281.744,1.2162e-05,-9.5e-07,0.0,0 STARLINK-3588,1 51869U 22022T   22288.21289622 -.00000095  00000-0  12162-4 0  9992,2 51869  53.2169 182.3398 0001744  78.3747 281.7440 15.08844677 35692,6917.866,95.437,540.938,538.525,0.0
51869.0,STARLINK-3588,PAYLOAD,2022-10-15 19:25:01,15.08850585,0.0001693,53.2157,179.6636,55.6694,304.4458,-8.4361e-06,-4.22e-06,0.0,0 STARLINK-3588,1 51869U 22022T   22288.80904730 -.00000422  00000-0 -84361-5 0  9997,2 51869  53.2157 179.6636 0001693  55.6694 304.4458 15.08850585 35782,6917.848000000001,95.437,540.884,538.5419999999998,0.0
51869.0,STARLINK-3588,PAYLOAD,2022-10-16 03:21:57,15.08841551,0.0001843,53.2157,178.178,58.4956,301.6216,-0.00012459,-2.271e-05,0.0,0 STARLINK-3588,1 51869U 22022T   22289.14025124 -.00002271  00000-0 -12459-3 0  9997,2 51869  53.2157 178.1780 0001843  58.4956 301.6216 15.08841551 35835,6917.876,95.437,541.016,538.466,0.0
51869.0,STARLINK-3588,PAYLOAD,2022-10-16 09:43:30,15.08826169,0.0001716,53.2158,176.9873,55.8781,304.2374,-0.00029645,-5.001e-05,0.0,0 STARLINK-3588,1 51869U 22022T   22289.40521965 -.00005001  00000-0 -29645-3 0  9999,2 51869  53.2158 176.9873 0001716  55.8781 304.2374 15.08826169 35877,6917.9230000000025,95.438,540.975,538.601,0.0
51869.0,STARLINK-3588,PAYLOAD,2022-10-16 19:15:50,15.08828854,0.0001645,53.2168,175.2025,59.5645,300.5509,-2.0147e-05,-6.09e-06,0.0,0 STARLINK-3588,1 51869U 22022T   22289.80266647 -.00000609  00000-0 -20147-4 0  9994,2 51869  53.2168 175.2025 0001645  59.5645 300.5509 15.08828854 35939,6917.9140000000025,95.438,540.9169999999998,538.641,0.0
51869.0,STARLINK-3588,PAYLOAD,2022-10-17 03:12:45,15.08838123,0.0001724,53.2153,173.7167,58.0187,302.0972,0.00015573,2.191e-05,0.0,0 STARLINK-3588,1 51869U 22022T   22290.13385851  .00002191  00000-0  15573-3 0  9993,2 51869  53.2153 173.7167 0001724  58.0187 302.0972 15.08838123 35982,6917.886,95.438,540.944,538.558,0.0
51869.0,STARLINK-3588,PAYLOAD,2022-10-17 09:34:17,15.08844399,0.0001673,53.2149,172.5275,57.849,302.2664,0.00057542,8.883e-05,0.0,0 STARLINK-3588,1 51869U 22022T   22290.39881867  .00008883  00000-0  57542-3 0  9995,2 51869  53.2149 172.5275 0001673  57.8490 302.2664 15.08844399 36029,6917.8669999999975,95.437,540.889,538.575,0.0
51869.0,STARLINK-3588,PAYLOAD,2022-10-17 19:06:37,15.08837156,0.0001726,53.2147,170.7433,59.1633,300.9528,0.00028171,4.198e-05,0.0,0 STARLINK-3588,1 51869U 22022T   22290.79626231  .00004198  00000-0  28171-3 0  9992,2 51869  53.2147 170.7433 0001726  59.1633 300.9528 15.08837156 36089,6917.889,95.438,540.948,538.56,0.0
51869.0,STARLINK-3588,PAYLOAD,2022-10-18 03:03:32,15.08846882,0.0001694,53.2149,169.2564,57.8461,302.2695,0.00048557,7.45e-05,0.0,0 STARLINK-3588,1 51869U 22022T   22291.12746073  .00007450  00000-0  48557-3 0  9991,2 51869  53.2149 169.2564 0001694  57.8461 302.2695 15.08846882 36139,6917.859,95.437,540.896,538.552,0.0
51869.0,STARLINK-3588,PAYLOAD,2022-10-18 15:46:37,15.08841033,0.0001676999999999,53.2154,166.8775,66.2426,293.8742,0.00034471,5.202e-05,0.0,0 STARLINK-3588,1 51869U 22022T   22291.65738317  .00005202  00000-0  34471-3 0  9994,2 51869  53.2154 166.8775 0001677  66.2426 293.8742 15.08841033 36218,6917.877,95.437,540.9019999999998,538.582,0.0
51869.0,STARLINK-3588,PAYLOAD,2022-10-19 01:18:57,15.08833781,0.0001674,53.2153,165.0939,53.0333,307.0812,0.00021898,3.198e-05,0.0,0 STARLINK-3588,1 51869U 22022T   22292.05482934  .00003198  00000-0  21898-3 0  9991,2 51869  53.2153 165.0939 0001674  53.0333 307.0812 15.08833781 36271,6917.899,95.438,540.922,538.606,0.0
51869.0,STARLINK-3588,PAYLOAD,2022-10-19 21:58:58,15.08837498,0.0001801,53.2159,161.2279,58.3028,301.814,0.00035506,5.367e-05,0.0,0 STARLINK-3588,1 51869U 22022T   22292.91595383  .00005367  00000-0  35506-3 0  9990,2 51869  53.2159 161.2279 0001801  58.3028 301.8140 15.08837498 36403,6917.888000000001,95.438,540.999,538.507,0.0
51869.0,STARLINK-3588,PAYLOAD,2022-10-21 02:35:54,15.08847823,0.00018,53.2159,155.8755,54.8844,305.2316,0.0002811,4.189e-05,0.0,0 STARLINK-3588,1 51869U 22022T   22294.10827010  .00004189  00000-0  28110-3 0  9992,2 51869  53.2159 155.8755 0001800  54.8844 305.2316 15.08847823 36582,6917.856,95.437,540.967,538.476,0.0
51869.0,STARLINK-3588,PAYLOAD,2022-10-21 07:22:03,15.08849289,0.0001758,53.2157,154.9836,53.999,306.1165,0.00025864,3.832e-05,0.0,0 STARLINK-3588,1 51869U 22022T   22294.30698845  .00003832  00000-0  25864-3 0  9993,2 51869  53.2157 154.9836 0001758  53.9990 306.1165 15.08849289 36618,6917.852,95.437,540.933,538.501,0.0
51869.0,STARLINK-3588,PAYLOAD,2022-10-21 18:29:45,15.08853064,0.0001621999999999,53.2155,152.9016,56.0073,304.1073,0.00021454,3.129e-05,0.0,0 STARLINK-3588,1 51869U 22022T   22294.77066303  .00003129  00000-0  21454-3 0  9992,2 51869  53.2155 152.9016 0001622  56.0073 304.1073 15.08853064 36689,6917.84,95.437,540.828,538.5830000000002,0.0
51869.0,STARLINK-3588,PAYLOAD,2022-10-22 02:26:41,15.08844769,0.0001651,53.2153,151.4154,54.7621,305.3526,3.0724e-05,2.01e-06,0.0,0 STARLINK-3588,1 51869U 22022T   22295.10186516  .00000201  00000-0  30724-4 0  9998,2 51869  53.2153 151.4154 0001651  54.7621 305.3526 15.08844769 36734,6917.866,95.437,540.873,538.589,0.0
